{"type": "FeatureCollection", "features": [ {"type": "Feature", "properties": {"norad_id": 40315, "name": "COSMOS 2501 (702K)", "group": "gnss", "lat": 37.91245814664172, "lon": -140.56312676259233, "alt_km": 19174.099865262557, "timestamp": "2025-12-16T19:34:24.509316+00:00", "meta": {"OBJECT_NAME": "COSMOS 2501 (702K)", "OBJECT_ID": "2014-075A", "EPOCH": "2025-12-14T09:54:07.365600", "MEAN_MOTION": 2.13101427, "ECCENTRICITY": 0.00201134, "INCLINATION": 63.6139, "RA_OF_ASC_NODE": 196.7672, "ARG_OF_PERICENTER": 204.2903, "MEAN_ANOMALY": 155.6894, "EPHEMERIS_TYPE": 0, "CLASSIFICATION_TYPE": "U", "NORAD_CAT_ID": 40315, "ELEMENT_SET_NO": 999, "REV_AT_EPOCH": 8591, "BSTAR": 0, "MEAN_MOTION_DOT": 9.7e-07, "MEAN_MOTION_DDOT": 0}, "tle": {"line1": "1 40315U 14075A   25348.41258525  .00000097  00000+0  00000+0 0  9998", "line2": "2 40315  63.6139 196.7672 0020113 204.2903 155.6894  2.13101427 85910"}}, "geometry": {"type": "Point", "coordinates": [-140.56312676259233, 37.91245814664172]}}, {"type": "Feature", "properties": {"norad_id": 40534, "name": "GPS BIIF-9  (PRN 26)", "group": "gnss", "lat": 5.3459041275853085, "lon": 27.71732764104626, "alt_km": 20380.75972720771, "timestamp": "2025-12-16T19:34:24.509333+00:00", "meta": {"OBJECT_NAME": "GPS BIIF-9  (PRN 26)", "OBJECT_ID": "2015-013A", "EPOCH": "2025-12-15T13:56:13.399296", "MEAN_MOTION": 2.00562492, "ECCENTRICITY": 0.01071717, "INCLINATION": 53.1973, "RA_OF_ASC_NODE": 211.7725, "ARG_OF_PERICENTER": 38.5497, "MEAN_ANOMALY": 322.2983, "EPHEMERIS_TYPE": 0, "CLASSIFICATION_TYPE": "U", "NORAD_CAT_ID": 40534, "ELEMENT_SET_NO": 999, "REV_AT_EPOCH": 7814, "BSTAR": 0, "MEAN_MOTION_DOT": 7.3e-07, "MEAN_MOTION_DDOT": 0}, "tle": {"line1": "1 40534U 15013A   25349.58071064  .00000073  00000+0  00000+0 0  9998", "line2": "2 40534  53.1973 211.7725 0107171  38.5497 322.2983  2.00562492 78143"}}, "geometry": {"type": "Point", "coordinates": [27.71732764104626, 5.3459041275853085]}}, {"type": "Feature", "properties": {"norad_id": 40544, "name": "GSAT0203 (GALILEO 7)", "group": "gnss", "lat": 15.573009550783903, "lon": -2.935512188173029, "alt_km": 23225.52742948624, "timestamp": "2025-12-16T19:34:24.509345+00:00", "meta": {"OBJECT_NAME": "GSAT0203 (GALILEO 7)", "OBJECT_ID": "2015-017A", "EPOCH": "2025-12-14T10:31:47.473824", "MEAN_MOTION": 1.70475994, "ECCENTRICITY": 0.00064885, "INCLINATION": 56.8458, "RA_OF_ASC_NODE": 346.6335, "ARG_OF_PERICENTER": 272.6107, "MEAN_ANOMALY": 87.3336, "EPHEMERIS_TYPE": 0, "CLASSIFICATION_TYPE": "U", "NORAD_CAT_ID": 40544, "ELEMENT_SET_NO": 999, "REV_AT_EPOCH": 6605, "BSTAR": 0, "MEAN_MOTION_DOT": -8.5e-07, "MEAN_MOTION_DDOT": 0}, "tle": {"line1": "1 40544U 15017A   25348.43874391 -.00000085  00000+0  00000+0 0  9994", "line2": "2 40544  56.8458 346.6335 0006488 272.6107  87.3336  1.70475994 66059"}}, "geometry": {"type": "Point", "coordinates": [-2.935512188173029, 15.573009550783903]}}, {"type": "Feature", "properties": {"norad_id": 40545, "name": "GSAT0204 (GALILEO 8)", "group": "gnss", "lat": -33.944142305159986, "lon": -167.31656498796323, "alt_km": 23212.732553785165, "timestamp": "2025-12-16T19:34:24.509357+00:00", "meta": {"OBJECT_NAME": "GSAT0204 (GALILEO 8)", "OBJECT_ID": "2015-017B", "EPOCH": "2025-12-14T16:39:40.338432", "MEAN_MOTION": 1.70475755, "ECCENTRICITY": 0.0006191, "INCLINATION": 56.8531, "RA_OF_ASC_NODE": 346.6443, "ARG_OF_PERICENTER": 264.523, "MEAN_ANOMALY": 95.425, "EPHEMERIS_TYPE": 0, "CLASSIFICATION_TYPE": "U", "NORAD_CAT_ID": 40545, "ELEMENT_SET_NO": 999, "REV_AT_EPOCH": 2910, "BSTAR": 0, "MEAN_MOTION_DOT": -8.5e-07, "MEAN_MOTION_DDOT": 0}, "tle": {"line1": "1 40545U 15017B   25348.69421688 -.00000085  00000+0  00000+0 0  9990", "line2": "2 40545  56.8531 346.6443 0006191 264.5230  95.4250  1.70475755 29105"}}, "geometry": {"type": "Point", "coordinates": [-167.31656498796323, -33.944142305159986]}}, {"type": "Feature", "properties": {"norad_id": 40549, "name": "BEIDOU-3S IGSO-1S (C31)", "group": "gnss", "lat": 3.147837361972255, "lon": 114.93211275537755, "alt_km": 35634.32634440058, "timestamp": "2025-12-16T19:34:24.509369+00:00", "meta": {"OBJECT_NAME": "BEIDOU-3S IGSO-1S (C31)", "OBJECT_ID": "2015-019A", "EPOCH": "2025-12-12T20:25:38.580672", "MEAN_MOTION": 1.0029302, "ECCENTRICITY": 0.0036523, "INCLINATION": 49.5511, "RA_OF_ASC_NODE": 297.7097, "ARG_OF_PERICENTER": 193.9643, "MEAN_ANOMALY": 350.5618, "EPHEMERIS_TYPE": 0, "CLASSIFICATION_TYPE": "U", "NORAD_CAT_ID": 40549, "ELEMENT_SET_NO": 999, "REV_AT_EPOCH": 3920, "BSTAR": 0, "MEAN_MOTION_DOT": -1.94e-06, "MEAN_MOTION_DDOT": 0}, "tle": {"line1": "1 40549U 15019A   25346.85114098 -.00000194  00000+0  00000+0 0  9997", "line2": "2 40549  49.5511 297.7097 0036523 193.9643 350.5618  1.00293020 39203"}}, "geometry": {"type": "Point", "coordinates": [114.93211275537755, 3.147837361972255]}}, {"type": "Feature", "properties": {"norad_id": 40730, "name": "GPS BIIF-10 (PRN 08)", "group": "gnss", "lat": 42.45980880994713, "lon": -44.019318980208055, "alt_km": 19919.426760734103, "timestamp": "2025-12-16T19:34:24.509381+00:00", "meta": {"OBJECT_NAME": "GPS BIIF-10 (PRN 08)", "OBJECT_ID": "2015-033A", "EPOCH": "2025-12-15T17:48:26.961408", "MEAN_MOTION": 2.00565512, "ECCENTRICITY": 0.01111562, "INCLINATION": 54.128, "RA_OF_ASC_NODE": 274.6493, "ARG_OF_PERICENTER": 26.8819, "MEAN_ANOMALY": 333.7054, "EPHEMERIS_TYPE": 0, "CLASSIFICATION_TYPE": "U", "NORAD_CAT_ID": 40730, "ELEMENT_SET_NO": 999, "REV_AT_EPOCH": 7631, "BSTAR": 0, "MEAN_MOTION_DOT": -6.1e-07, "MEAN_MOTION_DDOT": 0}, "tle": {"line1": "1 40730U 15033A   25349.74197872 -.00000061  00000+0  00000+0 0  9990", "line2": "2 40730  54.1280 274.6493 0111156  26.8819 333.7054  2.00565512 76318"}}, "geometry": {"type": "Point", "coordinates": [-44.019318980208055, 42.45980880994713]}}, {"type": "Feature", "properties": {"norad_id": 40748, "name": "BEIDOU-3S M2S (C58)", "group": "gnss", "lat": 29.712325159272947, "lon": -28.180738212127814, "alt_km": 21546.3976010448, "timestamp": "2025-12-16T19:34:24.509393+00:00", "meta": {"OBJECT_NAME": "BEIDOU-3S M2S (C58)", "OBJECT_ID": "2015-037A", "EPOCH": "2025-12-11T22:15:26.437248", "MEAN_MOTION": 1.8622897, "ECCENTRICITY": 0.00123447, "INCLINATION": 55.0397, "RA_OF_ASC_NODE": 308.4912, "ARG_OF_PERICENTER": 267.8245, "MEAN_ANOMALY": 92.025, "EPHEMERIS_TYPE": 0, "CLASSIFICATION_TYPE": "U", "NORAD_CAT_ID": 40748, "ELEMENT_SET_NO": 999, "REV_AT_EPOCH": 7063, "BSTAR": 0, "MEAN_MOTION_DOT": -8.9e-07, "MEAN_MOTION_DDOT": 0}, "tle": {"line1": "1 40748U 15037A   25345.92738932 -.00000089  00000+0  00000+0 0  9997", "line2": "2 40748  55.0397 308.4912 0012344 267.8245  92.0250  1.86228970 70636"}}, "geometry": {"type": "Point", "coordinates": [-28.180738212127814, 29.712325159272947]}}, {"type": "Feature", "properties": {"norad_id": 40749, "name": "BEIDOU-3S M1S (C57)", "group": "gnss", "lat": -47.05325855182685, "lon": 176.99783644690172, "alt_km": 21535.12770163312, "timestamp": "2025-12-16T19:34:24.509404+00:00", "meta": {"OBJECT_NAME": "BEIDOU-3S M1S (C57)", "OBJECT_ID": "2015-037B", "EPOCH": "2025-12-11T14:53:54.000096", "MEAN_MOTION": 1.86253918, "ECCENTRICITY": 0.00034406, "INCLINATION": 55.0364, "RA_OF_ASC_NODE": 308.4915, "ARG_OF_PERICENTER": 358.1692, "MEAN_ANOMALY": 1.8205, "EPHEMERIS_TYPE": 0, "CLASSIFICATION_TYPE": "U", "NORAD_CAT_ID": 40749, "ELEMENT_SET_NO": 999, "REV_AT_EPOCH": 7063, "BSTAR": 0, "MEAN_MOTION_DOT": -8.8e-07, "MEAN_MOTION_DDOT": 0}, "tle": {"line1": "1 40749U 15037B   25345.62076389 -.00000088  00000+0  00000+0 0  9995", "line2": "2 40749  55.0364 308.4915 0003440 358.1692   1.8205  1.86253918 70639"}}, "geometry": {"type": "Point", "coordinates": [176.99783644690172, -47.05325855182685]}}, {"type": "Feature", "properties": {"norad_id": 40889, "name": "GSAT0205 (GALILEO 9)", "group": "gnss", "lat": 3.251570388494758, "lon": -131.06588195893633, "alt_km": 23207.650109826405, "timestamp": "2025-12-16T19:34:24.509418+00:00", "meta": {"OBJECT_NAME": "GSAT0205 (GALILEO 9)", "OBJECT_ID": "2015-045A", "EPOCH": "2025-12-13T06:56:57.536448", "MEAN_MOTION": 1.70473165, "ECCENTRICITY": 0.00060191, "INCLINATION": 55.0031, "RA_OF_ASC_NODE": 226.743, "ARG_OF_PERICENTER": 39.8542, "MEAN_ANOMALY": 320.2702, "EPHEMERIS_TYPE": 0, "CLASSIFICATION_TYPE": "U", "NORAD_CAT_ID": 40889, "ELEMENT_SET_NO": 999, "REV_AT_EPOCH": 6384, "BSTAR": 0, "MEAN_MOTION_DOT": 2.2e-07, "MEAN_MOTION_DDOT": 0}, "tle": {"line1": "1 40889U 15045A   25347.28955482  .00000022  00000+0  00000+0 0  9990", "line2": "2 40889  55.0031 226.7430 0006019  39.8542 320.2702  1.70473165 63847"}}, "geometry": {"type": "Point", "coordinates": [-131.06588195893633, 3.251570388494758]}}, {"type": "Feature", "properties": {"norad_id": 40890, "name": "GSAT0206 (GALILEO 10)", "group": "gnss", "lat": -37.92557450199955, "lon": 79.70371493567278, "alt_km": 23238.47741046907, "timestamp": "2025-12-16T19:34:24.509429+00:00", "meta": {"OBJECT_NAME": "GSAT0206 (GALILEO 10)", "OBJECT_ID": "2015-045B", "EPOCH": "2025-12-14T16:24:04.185792", "MEAN_MOTION": 1.70473242, "ECCENTRICITY": 0.00039786, "INCLINATION": 55.0018, "RA_OF_ASC_NODE": 226.6995, "ARG_OF_PERICENTER": 38.8814, "MEAN_ANOMALY": 321.2332, "EPHEMERIS_TYPE": 0, "CLASSIFICATION_TYPE": "U", "NORAD_CAT_ID": 40890, "ELEMENT_SET_NO": 999, "REV_AT_EPOCH": 6389, "BSTAR": 0, "MEAN_MOTION_DOT": 3.4e-07, "MEAN_MOTION_DDOT": 0}, "tle": {"line1": "1 40890U 15045B   25348.68338178  .00000034  00000+0  00000+0 0  9997", "line2": "2 40890  55.0018 226.6995 0003978  38.8814 321.2332  1.70473242 63892"}}, "geometry": {"type": "Point", "coordinates": [79.70371493567278, -37.92557450199955]}}]}